[{"OBJECT_NAME":"STARLINK-4476","OBJECT_ID":"2022-097AH","EPOCH":"2025-10-15T11:39:18.680832","MEAN_MOTION":15.08833207,"ECCENTRICITY":0.0001218,"INCLINATION":53.2172,"RA_OF_ASC_NODE":45.966,"ARG_OF_PERICENTER":91.3392,"MEAN_ANOMALY":268.7739,"EPHEMERIS_TYPE":0,"CLASSIFICATION_TYPE":"U","NORAD_CAT_ID":53419,"ELEMENT_SET_NO":999,"REV_AT_EPOCH":17670,"BSTAR":5.3147752e-5,"MEAN_MOTION_DOT":5.58e-6,"MEAN_MOTION_DDOT":0},{"OBJECT_NAME":"STARLINK-4552","OBJECT_ID":"2022-097AJ","EPOCH":"2025-10-15T14:34:10.598304","MEAN_MOTION":15.08839032,"ECCENTRICITY":0.00014472,"INCLINATION":53.2163,"RA_OF_ASC_NODE":45.4199,"ARG_OF_PERICENTER":91.1067,"MEAN_ANOMALY":269.0091,"EPHEMERIS_TYPE":0,"CLASSIFICATION_TYPE":"U","NORAD_CAT_ID":53420,"ELEMENT_SET_NO":999,"REV_AT_EPOCH":17672,"BSTAR":7.1714675e-5,"MEAN_MOTION_DOT":8.54e-6,"MEAN_MOTION_DDOT":0},{"OBJECT_NAME":"STARLINK-4545","OBJECT_ID":"2022-097AK","EPOCH":"2025-10-15T14:44:45.302208","MEAN_MOTION":15.08865888,"ECCENTRICITY":0.00012678,"INCLINATION":53.2178,"RA_OF_ASC_NODE":45.3878,"ARG_OF_PERICENTER":93.5917,"MEAN_ANOMALY":266.522,"EPHEMERIS_TYPE":0,"CLASSIFICATION_TYPE":"U","NORAD_CAT_ID":53421,"ELEMENT_SET_NO":999,"REV_AT_EPOCH":17672,"BSTAR":0.00050242563,"MEAN_MOTION_DOT":7.723e-5,"MEAN_MOTION_DDOT":0},{"OBJECT_NAME":"STARLINK-4546","OBJECT_ID":"2022-097AL","EPOCH":"2025-10-15T11:12:48.642624","MEAN_MOTION":15.08837195,"ECCENTRICITY":0.00013712,"INCLINATION":53.2183,"RA_OF_ASC_NODE":46.0484,"ARG_OF_PERICENTER":85.6145,"MEAN_ANOMALY":274.5003,"EPHEMERIS_TYPE":0,"CLASSIFICATION_TYPE":"U","NORAD_CAT_ID":53422,"ELEMENT_SET_NO":999,"REV_AT_EPOCH":17672,"BSTAR":5.0703697e-5,"MEAN_MOTION_DOT":5.19e-6,"MEAN_MOTION_DDOT":0},{"OBJECT_NAME":"STARLINK-4539","OBJECT_ID":"2022-097AM","EPOCH":"2025-10-15T14:40:51.674016","MEAN_MOTION":15.0883752,"ECCENTRICITY":0.00015275,"INCLINATION":53.2196,"RA_OF_ASC_NODE":45.4094,"ARG_OF_PERICENTER":92.8329,"MEAN_ANOMALY":267.2838,"EPHEMERIS_TYPE":0,"CLASSIFICATION_TYPE":"U","NORAD_CAT_ID":53423,"ELEMENT_SET_NO":999,"REV_AT_EPOCH":17672,"BSTAR":5.2650274e-5,"MEAN_MOTION_DOT":5.5e-6,"MEAN_MOTION_DDOT":0},{"OBJECT_NAME":"STARLINK-4532","OBJECT_ID":"2022-097AN","EPOCH":"2025-10-15T14:12:59.028768","MEAN_MOTION":15.08838379,"ECCENTRICITY":0.00014228,"INCLINATION":53.2161,"RA_OF_ASC_NODE":45.4852,"ARG_OF_PERICENTER":90.8592,"MEAN_ANOMALY":269.2564,"EPHEMERIS_TYPE":0,"CLASSIFICATION_TYPE":"U","NORAD_CAT_ID":53424,"ELEMENT_SET_NO":999,"REV_AT_EPOCH":17674,"BSTAR":0.00010006855,"MEAN_MOTION_DOT":1.305e-5,"MEAN_MOTION_DDOT":0},{"OBJECT_NAME":"STARLINK-4531","OBJECT_ID":"2022-097AP","EPOCH":"2025-10-15T14:28:52.526208","MEAN_MOTION":15.08845341,"ECCENTRICITY":0.00013651,"INCLINATION":53.2155,"RA_OF_ASC_NODE":45.4368,"ARG_OF_PERICENTER":89.51,"MEAN_ANOMALY":270.6048,"EPHEMERIS_TYPE":0,"CLASSIFICATION_TYPE":"U","NORAD_CAT_ID":53425,"ELEMENT_SET_NO":999,"REV_AT_EPOCH":17671,"BSTAR":-9.080998e-6,"MEAN_MOTION_DOT":-4.32e-6,"MEAN_MOTION_DDOT":0},{"OBJECT_NAME":"STARLINK-4558","OBJECT_ID":"2022-097AQ","EPOCH":"2025-10-15T13:42:32.224320","MEAN_MOTION":15.08842289,"ECCENTRICITY":0.00012355,"INCLINATION":53.2167,"RA_OF_ASC_NODE":35.7352,"ARG_OF_PERICENTER":91.4379,"MEAN_ANOMALY":268.6754,"EPHEMERIS_TYPE":0,"CLASSIFICATION_TYPE":"U","NORAD_CAT_ID":53426,"ELEMENT_SET_NO":999,"REV_AT_EPOCH":17687,"BSTAR":8.1170787e-5,"MEAN_MOTION_DOT":1.004e-5,"MEAN_MOTION_DDOT":0},{"OBJECT_NAME":"STARLINK-4543","OBJECT_ID":"2022-097AT","EPOCH":"2025-10-15T13:37:14.570400","MEAN_MOTION":15.08836707,"ECCENTRICITY":0.00010663,"INCLINATION":53.2155,"RA_OF_ASC_NODE":35.7113,"ARG_OF_PERICENTER":90.4647,"MEAN_ANOMALY":269.6467,"EPHEMERIS_TYPE":0,"CLASSIFICATION_TYPE":"U","NORAD_CAT_ID":53429,"ELEMENT_SET_NO":999,"REV_AT_EPOCH":17687,"BSTAR":0.00026991684,"MEAN_MOTION_DOT":4.01e-5,"MEAN_MOTION_DDOT":0},{"OBJECT_NAME":"STARLINK-4538","OBJECT_ID":"2022-097AU","EPOCH":"2025-10-15T13:26:37.187232","MEAN_MOTION":15.08849063,"ECCENTRICITY":0.00016016,"INCLINATION":53.2168,"RA_OF_ASC_NODE":35.6684,"ARG_OF_PERICENTER":84.2084,"MEAN_ANOMALY":275.9091,"EPHEMERIS_TYPE":0,"CLASSIFICATION_TYPE":"U","NORAD_CAT_ID":53430,"ELEMENT_SET_NO":999,"REV_AT_EPOCH":17685,"BSTAR":-4.0859172e-5,"MEAN_MOTION_DOT":-9.38e-6,"MEAN_MOTION_DDOT":0},{"OBJECT_NAME":"STARLINK-4548","OBJECT_ID":"2022-097AV","EPOCH":"2025-10-15T14:03:38.668608","MEAN_MOTION":15.08837975,"ECCENTRICITY":0.00010524,"INCLINATION":53.2192,"RA_OF_ASC_NODE":35.1325,"ARG_OF_PERICENTER":84.9534,"MEAN_ANOMALY":275.1578,"EPHEMERIS_TYPE":0,"CLASSIFICATION_TYPE":"U","NORAD_CAT_ID":53431,"ELEMENT_SET_NO":999,"REV_AT_EPOCH":17688,"BSTAR":1.8495819e-5,"MEAN_MOTION_DOT":7.0e-8,"MEAN_MOTION_DDOT":0},{"OBJECT_NAME":"STARLINK-4557","OBJECT_ID":"2022-097AW","EPOCH":"2025-10-15T14:24:51.820128","MEAN_MOTION":15.08843656,"ECCENTRICITY":0.00012891,"INCLINATION":53.2166,"RA_OF_ASC_NODE":35.2141,"ARG_OF_PERICENTER":95.3675,"MEAN_ANOMALY":264.7464,"EPHEMERIS_TYPE":0,"CLASSIFICATION_TYPE":"U","NORAD_CAT_ID":53432,"ELEMENT_SET_NO":999,"REV_AT_EPOCH":17688,"BSTAR":4.499394e-5,"MEAN_MOTION_DOT":4.28e-6,"MEAN_MOTION_DDOT":0},{"OBJECT_NAME":"STARLINK-4549","OBJECT_ID":"2022-097AX","EPOCH":"2025-10-15T11:45:56.124288","MEAN_MOTION":15.08837892,"ECCENTRICITY":0.00012381,"INCLINATION":53.2176,"RA_OF_ASC_NODE":35.9419,"ARG_OF_PERICENTER":85.2395,"MEAN_ANOMALY":274.8738,"EPHEMERIS_TYPE":0,"CLASSIFICATION_TYPE":"U","NORAD_CAT_ID":53433,"ELEMENT_SET_NO":999,"REV_AT_EPOCH":17684,"BSTAR":6.976043e-5,"MEAN_MOTION_DOT":8.22e-6,"MEAN_MOTION_DDOT":0},{"OBJECT_NAME":"STARLINK-4498","OBJECT_ID":"2022-097AY","EPOCH":"2025-10-15T14:19:33.541536","MEAN_MOTION":15.08842311,"ECCENTRICITY":0.00012571,"INCLINATION":53.2184,"RA_OF_ASC_NODE":35.1893,"ARG_OF_PERICENTER":90.7743,"MEAN_ANOMALY":269.3393,"EPHEMERIS_TYPE":0,"CLASSIFICATION_TYPE":"U","NORAD_CAT_ID":53434,"ELEMENT_SET_NO":999,"REV_AT_EPOCH":17689,"BSTAR":0.00014509769,"MEAN_MOTION_DOT":2.022e-5,"MEAN_MOTION_DDOT":0},{"OBJECT_NAME":"STARLINK-4542","OBJECT_ID":"2022-097AZ","EPOCH":"2025-10-15T14:30:10.503936","MEAN_MOTION":15.08838797,"ECCENTRICITY":0.00012843,"INCLINATION":53.2189,"RA_OF_ASC_NODE":35.2365,"ARG_OF_PERICENTER":99.5365,"MEAN_ANOMALY":260.5773,"EPHEMERIS_TYPE":0,"CLASSIFICATION_TYPE":"U","NORAD_CAT_ID":53435,"ELEMENT_SET_NO":999,"REV_AT_EPOCH":17686,"BSTAR":9.8245992e-5,"MEAN_MOTION_DOT":1.276e-5,"MEAN_MOTION_DDOT":0},{"OBJECT_NAME":"STARLINK-4527","OBJECT_ID":"2022-097BA","EPOCH":"2025-10-15T14:14:14.779104","MEAN_MOTION":15.08843313,"ECCENTRICITY":0.00012595,"INCLINATION":53.217,"RA_OF_ASC_NODE":35.1664,"ARG_OF_PERICENTER":88.9842,"MEAN_ANOMALY":271.1294,"EPHEMERIS_TYPE":0,"CLASSIFICATION_TYPE":"U","NORAD_CAT_ID":53436,"ELEMENT_SET_NO":999,"REV_AT_EPOCH":17688,"BSTAR":8.3655244e-5,"MEAN_MOTION_DOT":1.044e-5,"MEAN_MOTION_DDOT":0}]
