STARLINK-4476           
1 53419U 22097AH  25288.48563288  .00000558  00000+0  53148-4 0  9993
2 53419  53.2172  45.9660 0001218  91.3392 268.7739 15.08833207176703
STARLINK-4552           
1 53420U 22097AJ  25288.60706711  .00000854  00000+0  71715-4 0  9998
2 53420  53.2163  45.4199 0001447  91.1067 269.0091 15.08839032176727
STARLINK-4545           
1 53421U 22097AK  25288.61441322  .00007723  00000+0  50243-3 0  9998
2 53421  53.2178  45.3878 0001267  93.5917 266.5220 15.08865888176721
STARLINK-4546           
1 53422U 22097AL  25288.46722966  .00000519  00000+0  50704-4 0  9997
2 53422  53.2183  46.0484 0001371  85.6145 274.5003 15.08837195176728
STARLINK-4539           
1 53423U 22097AM  25288.61170919  .00000550  00000+0  52650-4 0  9997
2 53423  53.2196  45.4094 0001527  92.8329 267.2838 15.08837520176727
STARLINK-4532           
1 53424U 22097AN  25288.59234987  .00001305  00000+0  10007-3 0  9999
2 53424  53.2161  45.4852 0001422  90.8592 269.2564 15.08838379176749
STARLINK-4531           
1 53425U 22097AP  25288.60338572 -.00000432  00000+0 -90810-5 0  9991
2 53425  53.2155  45.4368 0001365  89.5100 270.6048 15.08845341176718
STARLINK-4558           
1 53426U 22097AQ  25288.57120630  .00001004  00000+0  81171-4 0  9995
2 53426  53.2167  35.7352 0001235  91.4379 268.6754 15.08842289176879
STARLINK-4543           
1 53429U 22097AT  25288.56752975  .00004010  00000+0  26992-3 0  9999
2 53429  53.2155  35.7113 0001066  90.4647 269.6467 15.08836707176873
STARLINK-4538           
1 53430U 22097AU  25288.56015263 -.00000938  00000+0 -40859-4 0  9999
2 53430  53.2168  35.6684 0001601  84.2084 275.9091 15.08849063176852
STARLINK-4548           
1 53431U 22097AV  25288.58586422  .00000007  00000+0  18496-4 0  9999
2 53431  53.2192  35.1325 0001052  84.9534 275.1578 15.08837975176888
STARLINK-4557           
1 53432U 22097AW  25288.60059977  .00000428  00000+0  44994-4 0  9992
2 53432  53.2166  35.2141 0001289  95.3675 264.7464 15.08843656176882
STARLINK-4549           
1 53433U 22097AX  25288.49023292  .00000822  00000+0  69760-4 0  9997
2 53433  53.2176  35.9419 0001238  85.2395 274.8738 15.08837892176847
STARLINK-4498           
1 53434U 22097AY  25288.59691599  .00002022  00000+0  14510-3 0  9996
2 53434  53.2184  35.1893 0001257  90.7743 269.3393 15.08842311176897
STARLINK-4542           
1 53435U 22097AZ  25288.60428824  .00001276  00000+0  98246-4 0  9997
2 53435  53.2189  35.2365 0001284  99.5365 260.5773 15.08838797176860
STARLINK-4527           
1 53436U 22097BA  25288.59322661  .00001044  00000+0  83655-4 0  9999
2 53436  53.2170  35.1664 0001259  88.9842 271.1294 15.08843313176884
